{"fetched_at":"2026-04-07T02:14:38Z","count":15750,"tles":[{"name":"NOAA 21 (JPSS-2)","line1":"1 54234U 22150A   26096.28145815  .00000132  00000+0  83410-4 0  9990","line2":"2 54234  98.7586  36.2366 0002598  58.5657 301.5773 14.19559987176344","category":"Weather"},{"name":"NOAA 19","line1":"1 33591U 09005A   26096.20097679  .00000084  00000+0  68616-4 0  9990","line2":"2 33591  98.9558 167.0115 0012981 230.9186 129.0832 14.13462635884312","category":"Weather"},{"name":"NOAA 18","line1":"1 28654U 05018A   26096.21487955  .00000107  00000+0  79509-4 0  9994","line2":"2 28654  98.8122 176.9319 0014124   0.1359 359.9815 14.13716875 76144","category":"Weather"},{"name":"NOAA 20 (JPSS-1)","line1":"1 43013U 17073A   26096.24706130  .00000105  00000+0  70918-4 0  9999","line2":"2 43013  98.7725  36.3658 0002061 100.3989 259.7419 14.19543635434268","category":"Weather"},{"name":"SUOMI NPP","line1":"1 37849U 11061A   26096.23288518  .00000125  00000+0  80427-4 0  9992","line2":"2 37849  98.7905  37.6214 0002085 140.6152 219.5176 14.19501443748235","category":"Weather"}]}