[{"OBJECT_NAME":"NOAA 18","OBJECT_ID":"2005-018A","EPOCH":"2026-04-06T05:09:25.593120","MEAN_MOTION":14.13716875,"ECCENTRICITY":0.00141243,"INCLINATION":98.8122,"RA_OF_ASC_NODE":176.9319,"ARG_OF_PERICENTER":0.1359,"MEAN_ANOMALY":359.9815,"EPHEMERIS_TYPE":0,"CLASSIFICATION_TYPE":"U","NORAD_CAT_ID":28654,"ELEMENT_SET_NO":999,"REV_AT_EPOCH":7614,"BSTAR":7.9509213e-5,"MEAN_MOTION_DOT":1.07e-6,"MEAN_MOTION_DDOT":0},{"OBJECT_NAME":"NOAA 19","OBJECT_ID":"2009-005A","EPOCH":"2026-04-06T04:49:24.394656","MEAN_MOTION":14.13462635,"ECCENTRICITY":0.00129819,"INCLINATION":98.9558,"RA_OF_ASC_NODE":167.0115,"ARG_OF_PERICENTER":230.9186,"MEAN_ANOMALY":129.0832,"EPHEMERIS_TYPE":0,"CLASSIFICATION_TYPE":"U","NORAD_CAT_ID":33591,"ELEMENT_SET_NO":999,"REV_AT_EPOCH":88431,"BSTAR":6.8615618e-5,"MEAN_MOTION_DOT":8.4e-7,"MEAN_MOTION_DDOT":0},{"OBJECT_NAME":"SUOMI NPP","OBJECT_ID":"2011-061A","EPOCH":"2026-04-06T05:35:21.279552","MEAN_MOTION":14.19501443,"ECCENTRICITY":0.0002085,"INCLINATION":98.7905,"RA_OF_ASC_NODE":37.6214,"ARG_OF_PERICENTER":140.6152,"MEAN_ANOMALY":219.5176,"EPHEMERIS_TYPE":0,"CLASSIFICATION_TYPE":"U","NORAD_CAT_ID":37849,"ELEMENT_SET_NO":999,"REV_AT_EPOCH":74823,"BSTAR":8.0426922e-5,"MEAN_MOTION_DOT":1.25e-6,"MEAN_MOTION_DDOT":0},{"OBJECT_NAME":"NOAA 20 (JPSS-1)","OBJECT_ID":"2017-073A","EPOCH":"2026-04-06T05:55:46.096320","MEAN_MOTION":14.19543635,"ECCENTRICITY":0.00020613,"INCLINATION":98.7725,"RA_OF_ASC_NODE":36.3658,"ARG_OF_PERICENTER":100.3989,"MEAN_ANOMALY":259.7419,"EPHEMERIS_TYPE":0,"CLASSIFICATION_TYPE":"U","NORAD_CAT_ID":43013,"ELEMENT_SET_NO":999,"REV_AT_EPOCH":43426,"BSTAR":7.0917607e-5,"MEAN_MOTION_DOT":1.05e-6,"MEAN_MOTION_DDOT":0},{"OBJECT_NAME":"NOAA 21 (JPSS-2)","OBJECT_ID":"2022-150A","EPOCH":"2026-04-06T06:45:17.984160","MEAN_MOTION":14.19559987,"ECCENTRICITY":0.0002598,"INCLINATION":98.7586,"RA_OF_ASC_NODE":36.2366,"ARG_OF_PERICENTER":58.5657,"MEAN_ANOMALY":301.5773,"EPHEMERIS_TYPE":0,"CLASSIFICATION_TYPE":"U","NORAD_CAT_ID":54234,"ELEMENT_SET_NO":999,"REV_AT_EPOCH":17634,"BSTAR":8.340961e-5,"MEAN_MOTION_DOT":1.32e-6,"MEAN_MOTION_DDOT":0}]
